CCSDS_OMM_VERS = 2.0
CREATION_DATE  = 
ORIGINATOR     = 

OBJECT_NAME    = DELTA 2 R/B(1)
OBJECT_ID      = 1990-008B
CENTER_NAME    = EARTH
REF_FRAME      = TEME
TIME_SYSTEM    = UTC
MEAN_ELEMENT_THEORY = SGP/SGP4

EPOCH          = 2026-01-31T03:51:16.563168
MEAN_MOTION    = 15.50790330
ECCENTRICITY   = .00985468
INCLINATION    = 35.6064
RA_OF_ASC_NODE = 60.1721
ARG_OF_PERICENTER = 270.1117
MEAN_ANOMALY   = 88.8325

EPHEMERIS_TYPE = 0
CLASSIFICATION_TYPE = U
NORAD_CAT_ID   = 20453
ELEMENT_SET_NO = 999
REV_AT_EPOCH   = 92029
BSTAR          = .72612212E-3
MEAN_MOTION_DOT = .53304E-3
MEAN_MOTION_DDOT = 0

CCSDS_OMM_VERS = 2.0
CREATION_DATE  = 
ORIGINATOR     = 

OBJECT_NAME    = COSMOS 2058
OBJECT_ID      = 1990-010A
CENTER_NAME    = EARTH
REF_FRAME      = TEME
TIME_SYSTEM    = UTC
MEAN_ELEMENT_THEORY = SGP/SGP4

EPOCH          = 2026-01-31T05:39:16.416288
MEAN_MOTION    = 15.10975983
ECCENTRICITY   = .0011955
INCLINATION    = 82.4644
RA_OF_ASC_NODE = 84.3262
ARG_OF_PERICENTER = 101.1685
MEAN_ANOMALY   = 259.0889

EPHEMERIS_TYPE = 0
CLASSIFICATION_TYPE = U
NORAD_CAT_ID   = 20465
ELEMENT_SET_NO = 999
REV_AT_EPOCH   = 93658
BSTAR          = .21286E-3
MEAN_MOTION_DOT = .3586E-4
MEAN_MOTION_DDOT = 0

CCSDS_OMM_VERS = 2.0
CREATION_DATE  = 
ORIGINATOR     = 

OBJECT_NAME    = SL-14 R/B
OBJECT_ID      = 1990-010B
CENTER_NAME    = EARTH
REF_FRAME      = TEME
TIME_SYSTEM    = UTC
MEAN_ELEMENT_THEORY = SGP/SGP4

EPOCH          = 2026-01-31T06:05:15.657216
MEAN_MOTION    = 14.83533028
ECCENTRICITY   = .0021267
INCLINATION    = 82.5041
RA_OF_ASC_NODE = 302.5516
ARG_OF_PERICENTER = 65.0839
MEAN_ANOMALY   = 295.2583

EPHEMERIS_TYPE = 0
CLASSIFICATION_TYPE = U
NORAD_CAT_ID   = 20466
ELEMENT_SET_NO = 999
REV_AT_EPOCH   = 92293
BSTAR          = .67068E-4
MEAN_MOTION_DOT = .578E-5
MEAN_MOTION_DDOT = 0

CCSDS_OMM_VERS = 2.0
CREATION_DATE  = 
ORIGINATOR     = 

OBJECT_NAME    = SL-14 R/B
OBJECT_ID      = 1990-018B
CENTER_NAME    = EARTH
REF_FRAME      = TEME
TIME_SYSTEM    = UTC
MEAN_ELEMENT_THEORY = SGP/SGP4

EPOCH          = 2026-01-31T08:53:18.373056
MEAN_MOTION    = 14.82105930
ECCENTRICITY   = .0015532
INCLINATION    = 82.5191
RA_OF_ASC_NODE = 257.9797
ARG_OF_PERICENTER = 210.6038
MEAN_ANOMALY   = 149.4271

EPHEMERIS_TYPE = 0
CLASSIFICATION_TYPE = U
NORAD_CAT_ID   = 20511
ELEMENT_SET_NO = 999
REV_AT_EPOCH   = 91705
BSTAR          = .57807E-4
MEAN_MOTION_DOT = .484E-5
MEAN_MOTION_DDOT = 0

CCSDS_OMM_VERS = 2.0
CREATION_DATE  = 
ORIGINATOR     = 

OBJECT_NAME    = HST
OBJECT_ID      = 1990-037B
CENTER_NAME    = EARTH
REF_FRAME      = TEME
TIME_SYSTEM    = UTC
MEAN_ELEMENT_THEORY = SGP/SGP4

EPOCH          = 2026-01-31T09:59:44.727360
MEAN_MOTION    = 15.28875742
ECCENTRICITY   = .0001995
INCLINATION    = 28.4677
RA_OF_ASC_NODE = 294.1564
ARG_OF_PERICENTER = 63.4797
MEAN_ANOMALY   = 296.6003

EPHEMERIS_TYPE = 0
CLASSIFICATION_TYPE = U
NORAD_CAT_ID   = 20580
ELEMENT_SET_NO = 999
REV_AT_EPOCH   = 76760
BSTAR          = .25257E-3
MEAN_MOTION_DOT = .7521E-4
MEAN_MOTION_DDOT = 0

CCSDS_OMM_VERS = 2.0
CREATION_DATE  = 
ORIGINATOR     = 

OBJECT_NAME    = SL-16 R/B
OBJECT_ID      = 1990-046B
CENTER_NAME    = EARTH
REF_FRAME      = TEME
TIME_SYSTEM    = UTC
MEAN_ELEMENT_THEORY = SGP/SGP4

EPOCH          = 2026-01-31T08:55:30.691200
MEAN_MOTION    = 14.15005377
ECCENTRICITY   = .0014365
INCLINATION    = 70.9994
RA_OF_ASC_NODE = 16.2849
ARG_OF_PERICENTER = 351.3052
MEAN_ANOMALY   = 8.7819

EPHEMERIS_TYPE = 0
CLASSIFICATION_TYPE = U
NORAD_CAT_ID   = 20625
ELEMENT_SET_NO = 999
REV_AT_EPOCH   = 84311
BSTAR          = -.73904E-4
MEAN_MOTION_DOT = -.191E-5
MEAN_MOTION_DDOT = 0

CCSDS_OMM_VERS = 2.0
CREATION_DATE  = 
ORIGINATOR     = 

OBJECT_NAME    = COSMOS 2084
OBJECT_ID      = 1990-055A
CENTER_NAME    = EARTH
REF_FRAME      = TEME
TIME_SYSTEM    = UTC
MEAN_ELEMENT_THEORY = SGP/SGP4

EPOCH          = 2026-01-31T11:02:54.017088
MEAN_MOTION    = 15.05405236
ECCENTRICITY   = .0023112
INCLINATION    = 62.7906
RA_OF_ASC_NODE = 102.5324
ARG_OF_PERICENTER = 182.5442
MEAN_ANOMALY   = 177.5545

EPHEMERIS_TYPE = 0
CLASSIFICATION_TYPE = U
NORAD_CAT_ID   = 20663
ELEMENT_SET_NO = 999
REV_AT_EPOCH   = 93071
BSTAR          = .21109E-3
MEAN_MOTION_DOT = .2856E-4
MEAN_MOTION_DDOT = 0

CCSDS_OMM_VERS = 2.0
CREATION_DATE  = 
ORIGINATOR     = 

OBJECT_NAME    = SL-6 R/B(2)
OBJECT_ID      = 1990-055D
CENTER_NAME    = EARTH
REF_FRAME      = TEME
TIME_SYSTEM    = UTC
MEAN_ELEMENT_THEORY = SGP/SGP4

EPOCH          = 2026-01-31T09:25:29.769888
MEAN_MOTION    = 15.03380944
ECCENTRICITY   = .00193
INCLINATION    = 62.7839
RA_OF_ASC_NODE = 20.6637
ARG_OF_PERICENTER = 335.9027
MEAN_ANOMALY   = 24.1167

EPHEMERIS_TYPE = 0
CLASSIFICATION_TYPE = U
NORAD_CAT_ID   = 20666
ELEMENT_SET_NO = 999
REV_AT_EPOCH   = 93258
BSTAR          = .20377E-3
MEAN_MOTION_DOT = .2594E-4
MEAN_MOTION_DDOT = 0

CCSDS_OMM_VERS = 2.0
CREATION_DATE  = 
ORIGINATOR     = 

OBJECT_NAME    = SL-8 R/B
OBJECT_ID      = 1990-078B
CENTER_NAME    = EARTH
REF_FRAME      = TEME
TIME_SYSTEM    = UTC
MEAN_ELEMENT_THEORY = SGP/SGP4

EPOCH          = 2026-01-30T23:53:40.169184
MEAN_MOTION    = 14.87798152
ECCENTRICITY   = .0367681
INCLINATION    = 82.9047
RA_OF_ASC_NODE = 285.1732
ARG_OF_PERICENTER = 140.2718
MEAN_ANOMALY   = 222.6065

EPHEMERIS_TYPE = 0
CLASSIFICATION_TYPE = U
NORAD_CAT_ID   = 20775
ELEMENT_SET_NO = 999
REV_AT_EPOCH   = 80369
BSTAR          = .46825E-3
MEAN_MOTION_DOT = .15774E-3
MEAN_MOTION_DDOT = 0

CCSDS_OMM_VERS = 2.0
CREATION_DATE  = 
ORIGINATOR     = 

OBJECT_NAME    = SL-8 R/B
OBJECT_ID      = 1991-006B
CENTER_NAME    = EARTH
REF_FRAME      = TEME
TIME_SYSTEM    = UTC
MEAN_ELEMENT_THEORY = SGP/SGP4

EPOCH          = 2026-01-31T11:56:38.669856
MEAN_MOTION    = 13.77492031
ECCENTRICITY   = .0023353
INCLINATION    = 82.9421
RA_OF_ASC_NODE = 197.6989
ARG_OF_PERICENTER = 137.2661
MEAN_ANOMALY   = 237.7342

EPHEMERIS_TYPE = 0
CLASSIFICATION_TYPE = U
NORAD_CAT_ID   = 21088
ELEMENT_SET_NO = 999
REV_AT_EPOCH   = 75895
BSTAR          = -.14131E-5
MEAN_MOTION_DOT = .14E-6
MEAN_MOTION_DDOT = 0

CCSDS_OMM_VERS = 2.0
CREATION_DATE  = 
ORIGINATOR     = 

OBJECT_NAME    = OKEAN-3
OBJECT_ID      = 1991-039A
CENTER_NAME    = EARTH
REF_FRAME      = TEME
TIME_SYSTEM    = UTC
MEAN_ELEMENT_THEORY = SGP/SGP4

EPOCH          = 2026-01-31T10:30:25.194240
MEAN_MOTION    = 15.04504081
ECCENTRICITY   = .0016111
INCLINATION    = 82.5173
RA_OF_ASC_NODE = 12.9215
ARG_OF_PERICENTER = 96.8431
MEAN_ANOMALY   = 263.4629

EPHEMERIS_TYPE = 0
CLASSIFICATION_TYPE = U
NORAD_CAT_ID   = 21397
ELEMENT_SET_NO = 999
REV_AT_EPOCH   = 85943
BSTAR          = .23736E-3
MEAN_MOTION_DOT = .3359E-4
MEAN_MOTION_DDOT = 0

CCSDS_OMM_VERS = 2.0
CREATION_DATE  = 
ORIGINATOR     = 

OBJECT_NAME    = COSMOS 2151
OBJECT_ID      = 1991-042A
CENTER_NAME    = EARTH
REF_FRAME      = TEME
TIME_SYSTEM    = UTC
MEAN_ELEMENT_THEORY = SGP/SGP4

EPOCH          = 2026-01-31T11:03:30.297312
MEAN_MOTION    = 14.99953810
ECCENTRICITY   = .0012607
INCLINATION    = 82.4981
RA_OF_ASC_NODE = 119.5847
ARG_OF_PERICENTER = 178.9778
MEAN_ANOMALY   = 181.1474

EPHEMERIS_TYPE = 0
CLASSIFICATION_TYPE = U
NORAD_CAT_ID   = 21422
ELEMENT_SET_NO = 999
REV_AT_EPOCH   = 85761
BSTAR          = .19903E-3
MEAN_MOTION_DOT = .2501E-4
MEAN_MOTION_DDOT = 0

