DELTA 2 R/B(1)          
1 20453U 90008B   26031.16060837  .00053304  00000+0  72612-3 0  9999
2 20453  35.6064  60.1721 0098546 270.1117  88.8325 15.50790330920297
COSMOS 2058             
1 20465U 90010A   26031.23560667  .00003586  00000+0  21286-3 0  9997
2 20465  82.4644  84.3262 0011955 101.1685 259.0889 15.10975983936585
SL-14 R/B               
1 20466U 90010B   26031.25365344  .00000578  00000+0  67068-4 0  9992
2 20466  82.5041 302.5516 0021267  65.0839 295.2583 14.83533028922937
SL-14 R/B               
1 20511U 90018B   26031.37035154  .00000484  00000+0  57807-4 0  9993
2 20511  82.5191 257.9797 0015532 210.6038 149.4271 14.82105930917052
HST                     
1 20580U 90037B   26031.41648990  .00007521  00000+0  25257-3 0  9995
2 20580  28.4677 294.1564 0001995  63.4797 296.6003 15.28875742767603
SL-16 R/B               
1 20625U 90046B   26031.37188300 -.00000191  00000+0 -73904-4 0  9995
2 20625  70.9994  16.2849 0014365 351.3052   8.7819 14.15005377843116
COSMOS 2084             
1 20663U 90055A   26031.46034742  .00002856  00000+0  21109-3 0  9994
2 20663  62.7906 102.5324 0023112 182.5442 177.5545 15.05405236930716
SL-6 R/B(2)             
1 20666U 90055D   26031.39270567  .00002594  00000+0  20377-3 0  9991
2 20666  62.7839  20.6637 0019300 335.9027  24.1167 15.03380944932588
SL-8 R/B                
1 20775U 90078B   26030.99560381  .00015774  00000+0  46825-3 0  9998
2 20775  82.9047 285.1732 0367681 140.2718 222.6065 14.87798152803696
SL-8 R/B                
1 21088U 91006B   26031.49766979  .00000014  00000+0 -14131-5 0  9994
2 21088  82.9421 197.6989 0023353 137.2661 237.7342 13.77492031758957
OKEAN-3                 
1 21397U 91039A   26031.43779160  .00003359  00000+0  23736-3 0  9996
2 21397  82.5173  12.9215 0016111  96.8431 263.4629 15.04504081859430
COSMOS 2151             
1 21422U 91042A   26031.46076733  .00002501  00000+0  19903-3 0  9997
2 21422  82.4981 119.5847 0012607 178.9778 181.1474 14.99953810857615
